{
    "links": {
        "self": "http://www.neowsapp.com/rest/v1/neo/3674947?api_key=iIulBulltgU6a56xZRHN4H3l9WmuAYTsLGpBGhQ2"
    },
    "id": "3674947",
    "neo_reference_id": "3674947",
    "name": "(2014 OW3)",
    "designation": "2014 OW3",
    "nasa_jpl_url": "http://ssd.jpl.nasa.gov/sbdb.cgi?sstr=3674947",
    "absolute_magnitude_h": 22.4,
    "estimated_diameter": {
        "kilometers": {
            "estimated_diameter_min": 0.0880146521,
            "estimated_diameter_max": 0.1968067451
        },
        "meters": {
            "estimated_diameter_min": 88.0146520901,
            "estimated_diameter_max": 196.8067450894
        },
        "miles": {
            "estimated_diameter_min": 0.0546897524,
            "estimated_diameter_max": 0.122290004
        },
        "feet": {
            "estimated_diameter_min": 288.7619911632,
            "estimated_diameter_max": 645.6914415591
        }
    },
    "is_potentially_hazardous_asteroid": false,
    "close_approach_data": [
        {
            "close_approach_date": "2014-07-29",
            "close_approach_date_full": "2014-Jul-29 07:52",
            "epoch_date_close_approach": 1406620320000,
            "relative_velocity": {
                "kilometers_per_second": "23.2030298029",
                "kilometers_per_hour": "83530.9072904519",
                "miles_per_hour": "51902.8573661144"
            },
            "miss_distance": {
                "astronomical": "0.0247001617",
                "lunar": "9.6083629013",
                "kilometers": "3695091.578975579",
                "miles": "2296023.4391538302"
            },
            "orbiting_body": "Earth"
        }
    ],
    "orbital_data": {
        "orbit_id": "4",
        "orbit_determination_date": "2017-04-06 08:39:32",
        "first_observation_date": "2014-07-25",
        "last_observation_date": "2014-07-27",
        "data_arc_in_days": 2,
        "observations_used": 20,
        "orbit_uncertainty": "8",
        "minimum_orbit_intersection": ".0012094",
        "jupiter_tisserand_invariant": "3.730",
        "epoch_osculation": "2456864.5",
        "eccentricity": ".7388734704576988",
        "semi_major_axis": "1.761561971605099",
        "inclination": "8.154059166753903",
        "ascending_node_longitude": "305.2178233179449",
        "orbital_period": "853.9753131430266",
        "perihelion_distance": ".4599905642189331",
        "perihelion_argument": "106.2249494751962",
        "aphelion_distance": "3.063133378991264",
        "perihelion_time": "2456916.288870347955",
        "mean_anomaly": "338.1679949779283",
        "mean_motion": ".4215578535578886",
        "equinox": "J2000",
        "orbit_class": {
            "orbit_class_type": "APO",
            "orbit_class_description": "Near-Earth asteroid orbits which cross the Earth’s orbit similar to that of 1862 Apollo",
            "orbit_class_range": "a (semi-major axis) > 1.0 AU; q (perihelion) < 1.017 AU"
        }
    },
    "is_sentry_object": false
}